{
  "norad_id": 51780,
  "name": "STARLINK-3617",
  "history": [
    {
      "epoch": "2026-03-28T20:27:39.997728",
      "apogee_km": 540.6155527679484,
      "perigee_km": 538.8651914352595,
      "latitude_deg": 45.5649967365212,
      "longitude_deg": 159.8444419200532,
      "semi_major_axis_km": 6917.877372101603,
      "eccentricity": 0.00012651,
      "inclination_deg": 53.2167,
      "raan_deg": 253.0861,
      "arg_perigee_deg": 88.5814,
      "mean_anomaly_deg": 271.5324,
      "mean_motion_rev_day": 15.08840987
    }
  ]
}