{"fetched_at":"2026-03-30T06:02:59Z","count":15439,"tles":[{"name":"STARLINK-3617","line1":"1 51780U 22017N   26087.85254627 -.00000094  00000+0  12175-4 0  9998","line2":"2 51780  53.2167 253.0861 0001265  88.5814 271.5324 15.08840987225317","category":"Starlink"}]}